{"type": "FeatureCollection", "features": [ {"type": "Feature", "properties": {"norad_id": 30369, "name": "FENGYUN 1C DEB", "group": "fengyun-1c-debris", "lat": -62.50879056213311, "lon": 160.26314785151828, "alt_km": 855.2393556107936, "timestamp": "2025-12-26T10:30:50.543521+00:00", "meta": {"OBJECT_NAME": "FENGYUN 1C DEB", "OBJECT_ID": "1999-025ACG", "EPOCH": "2025-12-25T23:27:52.028064", "MEAN_MOTION": 14.12066737, "ECCENTRICITY": 0.009979, "INCLINATION": 98.7218, "RA_OF_ASC_NODE": 356.9726, "ARG_OF_PERICENTER": 157.8588, "MEAN_ANOMALY": 265.666, "EPHEMERIS_TYPE": 0, "CLASSIFICATION_TYPE": "U", "NORAD_CAT_ID": 30369, "ELEMENT_SET_NO": 999, "REV_AT_EPOCH": 97433, "BSTAR": 0.00015653, "MEAN_MOTION_DOT": 2.58e-06, "MEAN_MOTION_DDOT": 0}, "tle": {"line1": "1 30369U 99025ACG 25359.97768551  .00000258  00000+0  15653-3 0  9995", "line2": "2 30369  98.7218 356.9726 0099790 157.8588 265.6660 14.12066737974336"}}, "geometry": {"type": "Point", "coordinates": [160.26314785151828, -62.50879056213311]}}, {"type": "Feature", "properties": {"norad_id": 30370, "name": "FENGYUN 1C DEB", "group": "fengyun-1c-debris", "lat": 22.033545066604947, "lon": -119.61224876118445, "alt_km": 863.4590963511055, "timestamp": "2025-12-26T10:30:50.543531+00:00", "meta": {"OBJECT_NAME": "FENGYUN 1C DEB", "OBJECT_ID": "1999-025ACH", "EPOCH": "2025-12-26T03:15:30.923712", "MEAN_MOTION": 14.19218493, "ECCENTRICITY": 0.0099735, "INCLINATION": 99.0553, "RA_OF_ASC_NODE": 56.3784, "ARG_OF_PERICENTER": 278.7942, "MEAN_ANOMALY": 136.0642, "EPHEMERIS_TYPE": 0, "CLASSIFICATION_TYPE": "U", "NORAD_CAT_ID": 30370, "ELEMENT_SET_NO": 999, "REV_AT_EPOCH": 97284, "BSTAR": 0.0011912, "MEAN_MOTION_DOT": 2.576e-05, "MEAN_MOTION_DDOT": 0}, "tle": {"line1": "1 30370U 99025ACH 25360.13577458  .00002576  00000+0  11912-2 0  9999", "line2": "2 30370  99.0553  56.3784 0099735 278.7942 136.0642 14.19218493972845"}}, "geometry": {"type": "Point", "coordinates": [-119.61224876118445, 22.033545066604947]}}, {"type": "Feature", "properties": {"norad_id": 30371, "name": "FENGYUN 1C DEB", "group": "fengyun-1c-debris", "lat": 1.0360153611350575, "lon": 43.08506091423596, "alt_km": 791.8712865292509, "timestamp": "2025-12-26T10:30:50.543540+00:00", "meta": {"OBJECT_NAME": "FENGYUN 1C DEB", "OBJECT_ID": "1999-025ACJ", "EPOCH": "2025-12-26T02:22:00.824160", "MEAN_MOTION": 14.30299082, "ECCENTRICITY": 0.0006899, "INCLINATION": 98.5747, "RA_OF_ASC_NODE": 42.9069, "ARG_OF_PERICENTER": 291.6194, "MEAN_ANOMALY": 122.5412, "EPHEMERIS_TYPE": 0, "CLASSIFICATION_TYPE": "U", "NORAD_CAT_ID": 30371, "ELEMENT_SET_NO": 999, "REV_AT_EPOCH": 98094, "BSTAR": 0.00097597, "MEAN_MOTION_DOT": 2.49e-05, "MEAN_MOTION_DDOT": 0}, "tle": {"line1": "1 30371U 99025ACJ 25360.09862065  .00002490  00000+0  97597-3 0  9995", "line2": "2 30371  98.5747  42.9069 0006899 291.6194 122.5412 14.30299082980945"}}, "geometry": {"type": "Point", "coordinates": [43.08506091423596, 1.0360153611350575]}}, {"type": "Feature", "properties": {"norad_id": 30374, "name": "FENGYUN 1C DEB", "group": "fengyun-1c-debris", "lat": -0.2609410253299733, "lon": 45.57618238662196, "alt_km": 674.9168270363789, "timestamp": "2025-12-26T10:30:50.543563+00:00", "meta": {"OBJECT_NAME": "FENGYUN 1C DEB", "OBJECT_ID": "1999-025ACM", "EPOCH": "2025-12-26T03:41:30.243264", "MEAN_MOTION": 14.61470427, "ECCENTRICITY": 0.0039798, "INCLINATION": 99.2722, "RA_OF_ASC_NODE": 225.3005, "ARG_OF_PERICENTER": 126.7, "MEAN_ANOMALY": 358.3436, "EPHEMERIS_TYPE": 0, "CLASSIFICATION_TYPE": "U", "NORAD_CAT_ID": 30374, "ELEMENT_SET_NO": 999, "REV_AT_EPOCH": 99118, "BSTAR": 0.0015136, "MEAN_MOTION_DOT": 7.534e-05, "MEAN_MOTION_DDOT": 0}, "tle": {"line1": "1 30374U 99025ACM 25360.15382226  .00007534  00000+0  15136-2 0  9993", "line2": "2 30374  99.2722 225.3005 0039798 126.7000 358.3436 14.61470427991185"}}, "geometry": {"type": "Point", "coordinates": [45.57618238662196, -0.2609410253299733]}}, {"type": "Feature", "properties": {"norad_id": 30377, "name": "FENGYUN 1C DEB", "group": "fengyun-1c-debris", "lat": 26.670838625410077, "lon": -155.95675557421242, "alt_km": 873.3556267223266, "timestamp": "2025-12-26T10:30:50.543574+00:00", "meta": {"OBJECT_NAME": "FENGYUN 1C DEB", "OBJECT_ID": "1999-025ACQ", "EPOCH": "2025-12-26T01:31:30.668160", "MEAN_MOTION": 13.99186408, "ECCENTRICITY": 0.0117887, "INCLINATION": 98.8928, "RA_OF_ASC_NODE": 19.169, "ARG_OF_PERICENTER": 229.5897, "MEAN_ANOMALY": 199.0692, "EPHEMERIS_TYPE": 0, "CLASSIFICATION_TYPE": "U", "NORAD_CAT_ID": 30377, "ELEMENT_SET_NO": 999, "REV_AT_EPOCH": 96393, "BSTAR": 0.00047947, "MEAN_MOTION_DOT": 6.94e-06, "MEAN_MOTION_DDOT": 0}, "tle": {"line1": "1 30377U 99025ACQ 25360.06354940  .00000694  00000+0  47947-3 0  9994", "line2": "2 30377  98.8928  19.1690 0117887 229.5897 199.0692 13.99186408963931"}}, "geometry": {"type": "Point", "coordinates": [-155.95675557421242, 26.670838625410077]}}, {"type": "Feature", "properties": {"norad_id": 30379, "name": "FENGYUN 1C DEB", "group": "fengyun-1c-debris", "lat": -11.096569092299287, "lon": 16.504220373873963, "alt_km": 878.7170803458166, "timestamp": "2025-12-26T10:30:50.543584+00:00", "meta": {"OBJECT_NAME": "FENGYUN 1C DEB", "OBJECT_ID": "1999-025ACS", "EPOCH": "2025-12-25T13:00:29.378880", "MEAN_MOTION": 14.08047709, "ECCENTRICITY": 0.0035654, "INCLINATION": 98.7577, "RA_OF_ASC_NODE": 13.9024, "ARG_OF_PERICENTER": 242.1629, "MEAN_ANOMALY": 246.6692, "EPHEMERIS_TYPE": 0, "CLASSIFICATION_TYPE": "U", "NORAD_CAT_ID": 30379, "ELEMENT_SET_NO": 999, "REV_AT_EPOCH": 96997, "BSTAR": 0.00020936, "MEAN_MOTION_DOT": 3.15e-06, "MEAN_MOTION_DDOT": 0}, "tle": {"line1": "1 30379U 99025ACS 25359.54200670  .00000315  00000+0  20936-3 0  9996", "line2": "2 30379  98.7577  13.9024 0035654 242.1629 246.6692 14.08047709969970"}}, "geometry": {"type": "Point", "coordinates": [16.504220373873963, -11.096569092299287]}}, {"type": "Feature", "properties": {"norad_id": 30380, "name": "FENGYUN 1C DEB", "group": "fengyun-1c-debris", "lat": -32.245789123032665, "lon": 54.552824936402914, "alt_km": 839.8227919053397, "timestamp": "2025-12-26T10:30:50.543594+00:00", "meta": {"OBJECT_NAME": "FENGYUN 1C DEB", "OBJECT_ID": "1999-025ACT", "EPOCH": "2025-12-26T02:23:34.238976", "MEAN_MOTION": 14.50703403, "ECCENTRICITY": 0.0178099, "INCLINATION": 98.9127, "RA_OF_ASC_NODE": 48.5131, "ARG_OF_PERICENTER": 177.1536, "MEAN_ANOMALY": 183.0715, "EPHEMERIS_TYPE": 0, "CLASSIFICATION_TYPE": "U", "NORAD_CAT_ID": 30380, "ELEMENT_SET_NO": 999, "REV_AT_EPOCH": 99759, "BSTAR": 0.00027594, "MEAN_MOTION_DOT": 1.271e-05, "MEAN_MOTION_DDOT": 0}, "tle": {"line1": "1 30380U 99025ACT 25360.09970184  .00001271  00000+0  27594-3 0  9993", "line2": "2 30380  98.9127  48.5131 0178099 177.1536 183.0715 14.50703403997599"}}, "geometry": {"type": "Point", "coordinates": [54.552824936402914, -32.245789123032665]}}, {"type": "Feature", "properties": {"norad_id": 30381, "name": "FENGYUN 1C DEB", "group": "fengyun-1c-debris", "lat": -53.647790887443655, "lon": -156.95252287327529, "alt_km": 893.2998128036825, "timestamp": "2025-12-26T10:30:50.543604+00:00", "meta": {"OBJECT_NAME": "FENGYUN 1C DEB", "OBJECT_ID": "1999-025ACU", "EPOCH": "2025-12-24T13:13:19.655616", "MEAN_MOTION": 14.12982436, "ECCENTRICITY": 0.00538965, "INCLINATION": 98.8127, "RA_OF_ASC_NODE": 33.3585, "ARG_OF_PERICENTER": 42.5981, "MEAN_ANOMALY": 317.9353, "EPHEMERIS_TYPE": 0, "CLASSIFICATION_TYPE": "U", "NORAD_CAT_ID": 30381, "ELEMENT_SET_NO": 999, "REV_AT_EPOCH": 92333, "BSTAR": 0.00093102658, "MEAN_MOTION_DOT": 1.716e-05, "MEAN_MOTION_DDOT": 0}, "tle": {"line1": "1 30381U 99025ACU 25358.55092194  .00001716  00000+0  93103-3 0  9991", "line2": "2 30381  98.8127  33.3585 0053896  42.5981 317.9353 14.12982436923330"}}, "geometry": {"type": "Point", "coordinates": [-156.95252287327529, -53.647790887443655]}}, {"type": "Feature", "properties": {"norad_id": 30382, "name": "FENGYUN 1C DEB", "group": "fengyun-1c-debris", "lat": 69.64140722583745, "lon": -117.84633436252889, "alt_km": 897.8784242635256, "timestamp": "2025-12-26T10:30:50.543614+00:00", "meta": {"OBJECT_NAME": "FENGYUN 1C DEB", "OBJECT_ID": "1999-025ACV", "EPOCH": "2025-12-26T01:42:58.916736", "MEAN_MOTION": 14.2534632, "ECCENTRICITY": 0.0154318, "INCLINATION": 98.4982, "RA_OF_ASC_NODE": 38.0373, "ARG_OF_PERICENTER": 317.8281, "MEAN_ANOMALY": 69.9712, "EPHEMERIS_TYPE": 0, "CLASSIFICATION_TYPE": "U", "NORAD_CAT_ID": 30382, "ELEMENT_SET_NO": 999, "REV_AT_EPOCH": 97725, "BSTAR": 0.00086897, "MEAN_MOTION_DOT": 2.274e-05, "MEAN_MOTION_DDOT": 0}, "tle": {"line1": "1 30382U 99025ACV 25360.07151524  .00002274  00000+0  86897-3 0  9997", "line2": "2 30382  98.4982  38.0373 0154318 317.8281  69.9712 14.25346320977258"}}, "geometry": {"type": "Point", "coordinates": [-117.84633436252889, 69.64140722583745]}}, {"type": "Feature", "properties": {"norad_id": 30385, "name": "FENGYUN 1C DEB", "group": "fengyun-1c-debris", "lat": 8.199771371614089, "lon": 20.61633700187369, "alt_km": 807.0911620583884, "timestamp": "2025-12-26T10:30:50.543624+00:00", "meta": {"OBJECT_NAME": "FENGYUN 1C DEB", "OBJECT_ID": "1999-025ACY", "EPOCH": "2025-12-25T13:29:33.775872", "MEAN_MOTION": 14.38811893, "ECCENTRICITY": 0.0124714, "INCLINATION": 99.081, "RA_OF_ASC_NODE": 21.0103, "ARG_OF_PERICENTER": 251.595, "MEAN_ANOMALY": 261.2852, "EPHEMERIS_TYPE": 0, "CLASSIFICATION_TYPE": "U", "NORAD_CAT_ID": 30385, "ELEMENT_SET_NO": 999, "REV_AT_EPOCH": 98953, "BSTAR": 0.00028035, "MEAN_MOTION_DOT": 8.89e-06, "MEAN_MOTION_DDOT": 0}, "tle": {"line1": "1 30385U 99025ACY 25359.56219648  .00000889  00000+0  28035-3 0  9994", "line2": "2 30385  99.0810  21.0103 0124714 251.5950 261.2852 14.38811893989537"}}, "geometry": {"type": "Point", "coordinates": [20.61633700187369, 8.199771371614089]}}]}